ISS (ZARYA)             
1 25544U 98067A   25365.75865998  .00015131  00000+0  28223-3 0  9998
2 25544  51.6330  48.2919 0007527 325.0385  35.0108 15.48982944545803
CSS (TIANHE)            
1 48274U 21035A   26001.11776442  .00026048  00000+0  31558-3 0  9991
2 48274  41.4667 258.9953 0009918 194.9234 165.1313 15.59995819267056
ISS (NAUKA)             
1 49044U 21066A   25365.75865998  .00015131  00000+0  28223-3 0  9994
2 49044  51.6330  48.2919 0007527 325.0386  35.0108 15.48982944230446
FREGAT DEB              
1 49271U 11037PF  25365.59630487  .00025333  00000+0  54784-1 0  9992
2 49271  51.6466 143.6810 0871591 265.1469  84.9449 12.34776872204269
CSS (WENTIAN)           
1 53239U 22085A   25365.92570682  .00024817  00000+0  30104-3 0  9991
2 53239  41.4667 260.1626 0009936 193.3044 166.7534 15.59983725173845
CSS (MENGTIAN)          
1 54216U 22143A   25365.92570682  .00024817  00000+0  30104-3 0  9992
2 54216  41.4667 260.1626 0009936 193.3044 166.7534 15.59983725158642
SHENZHOU-20 (SZ-20)     
1 63632U 25082A   25365.92570682  .00024817  00000+0  30104-3 0  9999
2 63632  41.4667 260.1626 0009936 193.3044 166.7534 15.59983725255305
PROGRESS-MS 31          
1 64751U 25146A   25365.75865998  .00015131  00000+0  28223-3 0  9999
2 64751  51.6330  48.2919 0007527 325.0386  35.0108 15.48982944  6753
TIANZHOU-9              
1 64786U 25149A   25365.92570682  .00024817  00000+0  30104-3 0  9994
2 64786  41.4667 260.1626 0009936 193.3044 166.7534 15.59983725255306
CREW DRAGON 11          
1 65077U 25166A   25365.75865998  .00015131  00000+0  28223-3 0  9993
2 65077  51.6330  48.2919 0007527 325.0386  35.0108 15.48982944  2144
DRAGON CRS-33           
1 65304U 25186A   25365.75865998  .00015131  00000+0  28223-3 0  9998
2 65304  51.6330  48.2919 0007527 325.0386  35.0108 15.48982944   112
PROGRESS-MS 32          
1 65586U 25204A   25365.75865998  .00015131  00000+0  28223-3 0  9991
2 65586  51.6330  48.2919 0007527 325.0386  35.0108 15.48982944   271
