CCSDS_OMM_VERS = 2.0
CREATION_DATE  = 
ORIGINATOR     = 

OBJECT_NAME    = ISS (ZARYA)
OBJECT_ID      = 1998-067A
CENTER_NAME    = EARTH
REF_FRAME      = TEME
TIME_SYSTEM    = UTC
MEAN_ELEMENT_THEORY = SGP/SGP4

EPOCH          = 2025-12-31T18:12:28.222272
MEAN_MOTION    = 15.48982944
ECCENTRICITY   = .0007527
INCLINATION    = 51.6330
RA_OF_ASC_NODE = 48.2919
ARG_OF_PERICENTER = 325.0385
MEAN_ANOMALY   = 35.0108

EPHEMERIS_TYPE = 0
CLASSIFICATION_TYPE = U
NORAD_CAT_ID   = 25544
ELEMENT_SET_NO = 999
REV_AT_EPOCH   = 54580
BSTAR          = .28223E-3
MEAN_MOTION_DOT = .15131E-3
MEAN_MOTION_DDOT = 0

CCSDS_OMM_VERS = 2.0
CREATION_DATE  = 
ORIGINATOR     = 

OBJECT_NAME    = CSS (TIANHE)
OBJECT_ID      = 2021-035A
CENTER_NAME    = EARTH
REF_FRAME      = TEME
TIME_SYSTEM    = UTC
MEAN_ELEMENT_THEORY = SGP/SGP4

EPOCH          = 2026-01-01T02:49:34.845888
MEAN_MOTION    = 15.59995819
ECCENTRICITY   = .0009918
INCLINATION    = 41.4667
RA_OF_ASC_NODE = 258.9953
ARG_OF_PERICENTER = 194.9234
MEAN_ANOMALY   = 165.1313

EPHEMERIS_TYPE = 0
CLASSIFICATION_TYPE = U
NORAD_CAT_ID   = 48274
ELEMENT_SET_NO = 999
REV_AT_EPOCH   = 26705
BSTAR          = .31558E-3
MEAN_MOTION_DOT = .26048E-3
MEAN_MOTION_DDOT = 0

CCSDS_OMM_VERS = 2.0
CREATION_DATE  = 
ORIGINATOR     = 

OBJECT_NAME    = ISS (NAUKA)
OBJECT_ID      = 2021-066A
CENTER_NAME    = EARTH
REF_FRAME      = TEME
TIME_SYSTEM    = UTC
MEAN_ELEMENT_THEORY = SGP/SGP4

EPOCH          = 2025-12-31T18:12:28.222272
MEAN_MOTION    = 15.48982944
ECCENTRICITY   = .00075274
INCLINATION    = 51.6330
RA_OF_ASC_NODE = 48.2919
ARG_OF_PERICENTER = 325.0386
MEAN_ANOMALY   = 35.0108

EPHEMERIS_TYPE = 0
CLASSIFICATION_TYPE = U
NORAD_CAT_ID   = 49044
ELEMENT_SET_NO = 999
REV_AT_EPOCH   = 23044
BSTAR          = .28222753E-3
MEAN_MOTION_DOT = .15131E-3
MEAN_MOTION_DDOT = 0

CCSDS_OMM_VERS = 2.0
CREATION_DATE  = 
ORIGINATOR     = 

OBJECT_NAME    = FREGAT DEB
OBJECT_ID      = 2011-037PF
CENTER_NAME    = EARTH
REF_FRAME      = TEME
TIME_SYSTEM    = UTC
MEAN_ELEMENT_THEORY = SGP/SGP4

EPOCH          = 2025-12-31T14:18:40.740768
MEAN_MOTION    = 12.34776872
ECCENTRICITY   = .08715918
INCLINATION    = 51.6466
RA_OF_ASC_NODE = 143.6810
ARG_OF_PERICENTER = 265.1469
MEAN_ANOMALY   = 84.9449

EPHEMERIS_TYPE = 0
CLASSIFICATION_TYPE = U
NORAD_CAT_ID   = 49271
ELEMENT_SET_NO = 999
REV_AT_EPOCH   = 20426
BSTAR          = .54784252E-1
MEAN_MOTION_DOT = .25333E-3
MEAN_MOTION_DDOT = 0

CCSDS_OMM_VERS = 2.0
CREATION_DATE  = 
ORIGINATOR     = 

OBJECT_NAME    = CSS (WENTIAN)
OBJECT_ID      = 2022-085A
CENTER_NAME    = EARTH
REF_FRAME      = TEME
TIME_SYSTEM    = UTC
MEAN_ELEMENT_THEORY = SGP/SGP4

EPOCH          = 2025-12-31T22:13:01.069248
MEAN_MOTION    = 15.59983725
ECCENTRICITY   = .00099362
INCLINATION    = 41.4667
RA_OF_ASC_NODE = 260.1626
ARG_OF_PERICENTER = 193.3044
MEAN_ANOMALY   = 166.7534

EPHEMERIS_TYPE = 0
CLASSIFICATION_TYPE = U
NORAD_CAT_ID   = 53239
ELEMENT_SET_NO = 999
REV_AT_EPOCH   = 17384
BSTAR          = .30103624E-3
MEAN_MOTION_DOT = .24817E-3
MEAN_MOTION_DDOT = 0

CCSDS_OMM_VERS = 2.0
CREATION_DATE  = 
ORIGINATOR     = 

OBJECT_NAME    = CSS (MENGTIAN)
OBJECT_ID      = 2022-143A
CENTER_NAME    = EARTH
REF_FRAME      = TEME
TIME_SYSTEM    = UTC
MEAN_ELEMENT_THEORY = SGP/SGP4

EPOCH          = 2025-12-31T22:13:01.069248
MEAN_MOTION    = 15.59983725
ECCENTRICITY   = .00099362
INCLINATION    = 41.4667
RA_OF_ASC_NODE = 260.1626
ARG_OF_PERICENTER = 193.3044
MEAN_ANOMALY   = 166.7534

EPHEMERIS_TYPE = 0
CLASSIFICATION_TYPE = U
NORAD_CAT_ID   = 54216
ELEMENT_SET_NO = 999
REV_AT_EPOCH   = 15864
BSTAR          = .30103624E-3
MEAN_MOTION_DOT = .24817E-3
MEAN_MOTION_DDOT = 0

CCSDS_OMM_VERS = 2.0
CREATION_DATE  = 
ORIGINATOR     = 

OBJECT_NAME    = SHENZHOU-20 (SZ-20)
OBJECT_ID      = 2025-082A
CENTER_NAME    = EARTH
REF_FRAME      = TEME
TIME_SYSTEM    = UTC
MEAN_ELEMENT_THEORY = SGP/SGP4

EPOCH          = 2025-12-31T22:13:01.069248
MEAN_MOTION    = 15.59983725
ECCENTRICITY   = .00099362
INCLINATION    = 41.4667
RA_OF_ASC_NODE = 260.1626
ARG_OF_PERICENTER = 193.3044
MEAN_ANOMALY   = 166.7534

EPHEMERIS_TYPE = 0
CLASSIFICATION_TYPE = U
NORAD_CAT_ID   = 63632
ELEMENT_SET_NO = 999
REV_AT_EPOCH   = 25530
BSTAR          = .30103624E-3
MEAN_MOTION_DOT = .24817E-3
MEAN_MOTION_DDOT = 0

CCSDS_OMM_VERS = 2.0
CREATION_DATE  = 
ORIGINATOR     = 

OBJECT_NAME    = PROGRESS-MS 31
OBJECT_ID      = 2025-146A
CENTER_NAME    = EARTH
REF_FRAME      = TEME
TIME_SYSTEM    = UTC
MEAN_ELEMENT_THEORY = SGP/SGP4

EPOCH          = 2025-12-31T18:12:28.222272
MEAN_MOTION    = 15.48982944
ECCENTRICITY   = .00075274
INCLINATION    = 51.6330
RA_OF_ASC_NODE = 48.2919
ARG_OF_PERICENTER = 325.0386
MEAN_ANOMALY   = 35.0108

EPHEMERIS_TYPE = 0
CLASSIFICATION_TYPE = U
NORAD_CAT_ID   = 64751
ELEMENT_SET_NO = 999
REV_AT_EPOCH   = 675
BSTAR          = .28222753E-3
MEAN_MOTION_DOT = .15131E-3
MEAN_MOTION_DDOT = 0

CCSDS_OMM_VERS = 2.0
CREATION_DATE  = 
ORIGINATOR     = 

OBJECT_NAME    = TIANZHOU-9
OBJECT_ID      = 2025-149A
CENTER_NAME    = EARTH
REF_FRAME      = TEME
TIME_SYSTEM    = UTC
MEAN_ELEMENT_THEORY = SGP/SGP4

EPOCH          = 2025-12-31T22:13:01.069248
MEAN_MOTION    = 15.59983725
ECCENTRICITY   = .00099362
INCLINATION    = 41.4667
RA_OF_ASC_NODE = 260.1626
ARG_OF_PERICENTER = 193.3044
MEAN_ANOMALY   = 166.7534

EPHEMERIS_TYPE = 0
CLASSIFICATION_TYPE = U
NORAD_CAT_ID   = 64786
ELEMENT_SET_NO = 999
REV_AT_EPOCH   = 25530
BSTAR          = .30103624E-3
MEAN_MOTION_DOT = .24817E-3
MEAN_MOTION_DDOT = 0

CCSDS_OMM_VERS = 2.0
CREATION_DATE  = 
ORIGINATOR     = 

OBJECT_NAME    = CREW DRAGON 11
OBJECT_ID      = 2025-166A
CENTER_NAME    = EARTH
REF_FRAME      = TEME
TIME_SYSTEM    = UTC
MEAN_ELEMENT_THEORY = SGP/SGP4

EPOCH          = 2025-12-31T18:12:28.222272
MEAN_MOTION    = 15.48982944
ECCENTRICITY   = .00075274
INCLINATION    = 51.6330
RA_OF_ASC_NODE = 48.2919
ARG_OF_PERICENTER = 325.0386
MEAN_ANOMALY   = 35.0108

EPHEMERIS_TYPE = 0
CLASSIFICATION_TYPE = U
NORAD_CAT_ID   = 65077
ELEMENT_SET_NO = 999
REV_AT_EPOCH   = 214
BSTAR          = .28222753E-3
MEAN_MOTION_DOT = .15131E-3
MEAN_MOTION_DDOT = 0

CCSDS_OMM_VERS = 2.0
CREATION_DATE  = 
ORIGINATOR     = 

OBJECT_NAME    = DRAGON CRS-33
OBJECT_ID      = 2025-186A
CENTER_NAME    = EARTH
REF_FRAME      = TEME
TIME_SYSTEM    = UTC
MEAN_ELEMENT_THEORY = SGP/SGP4

EPOCH          = 2025-12-31T18:12:28.222272
MEAN_MOTION    = 15.48982944
ECCENTRICITY   = .00075274
INCLINATION    = 51.6330
RA_OF_ASC_NODE = 48.2919
ARG_OF_PERICENTER = 325.0386
MEAN_ANOMALY   = 35.0108

EPHEMERIS_TYPE = 0
CLASSIFICATION_TYPE = U
NORAD_CAT_ID   = 65304
ELEMENT_SET_NO = 999
REV_AT_EPOCH   = 11
BSTAR          = .28222753E-3
MEAN_MOTION_DOT = .15131E-3
MEAN_MOTION_DDOT = 0

CCSDS_OMM_VERS = 2.0
CREATION_DATE  = 
ORIGINATOR     = 

OBJECT_NAME    = PROGRESS-MS 32
OBJECT_ID      = 2025-204A
CENTER_NAME    = EARTH
REF_FRAME      = TEME
TIME_SYSTEM    = UTC
MEAN_ELEMENT_THEORY = SGP/SGP4

EPOCH          = 2025-12-31T18:12:28.222272
MEAN_MOTION    = 15.48982944
ECCENTRICITY   = .00075274
INCLINATION    = 51.6330
RA_OF_ASC_NODE = 48.2919
ARG_OF_PERICENTER = 325.0386
MEAN_ANOMALY   = 35.0108

EPHEMERIS_TYPE = 0
CLASSIFICATION_TYPE = U
NORAD_CAT_ID   = 65586
ELEMENT_SET_NO = 999
REV_AT_EPOCH   = 27
BSTAR          = .28222753E-3
MEAN_MOTION_DOT = .15131E-3
MEAN_MOTION_DDOT = 0

